STARLINK-36527          
1 67631U 26020Q   26051.52797629  .00483398  00000+0  21473-2 0  9997
2 67631  42.9969 245.9227 0002205 240.4996 119.5656 15.82265860  3388
STARLINK-36633          
1 67632U 26020R   26051.75002314 -.00024965  00000+0 -15063-3 0  9995
2 67632  42.9992 244.6470 0002083 272.5130 241.2038 15.76384499  4663
STARLINK-36637          
1 67633U 26020S   26050.92775270  .00147099  00000+0  88786-3 0  9996
2 67633  42.9974 250.0457 0003563 248.2148 111.8342 15.76433786  3284
STARLINK-36617          
1 67634U 26020T   26051.46283391  .00407113  00000+0  18159-2 0  9997
2 67634  43.0056 246.3045 0010028 314.0536  45.9509 15.82321089  3377
STARLINK-36627          
1 67635U 26020U   26051.55479438  .00264405  00000+0  15673-2 0  9990
2 67635  42.9981 246.1416 0002100 252.4476 107.6165 15.76499452  3381
STARLINK-36624          
1 67636U 26020V   26051.75002314 -.00010098  00000+0 -59047-4 0  9992
2 67636  42.9994 244.6788 0001592 268.9459 232.3274 15.76382043  4664
STARLINK-36610          
1 67637U 26020W   26050.92337405  .00079350  00000+0  48604-3 0  9993
2 67637  42.9975 250.0101 0001797 260.8001  99.2665 15.76351045  3284
STARLINK-36599          
1 67638U 26020X   26050.95359405  .00211006  00000+0  97699-3 0  9995
2 67638  42.9966 249.3581 0002245 274.4216  85.6399 15.82089196  3292
STARLINK-36595          
1 67639U 26020Y   26051.75002314 -.00007862  00000+0 -45295-4 0  9990
2 67639  42.9991 244.5841 0001723 273.8762 264.7238 15.76383307  4664
STARLINK-36570          
1 67640U 26020Z   26051.55041607  .00281192  00000+0  16629-2 0  9993
2 67640  42.9980 246.1048 0002083 254.6786 105.3853 15.76505084  3383
STARLINK-36514          
1 67641U 26020AA  26051.45559648  .00414249  00000+0  18484-2 0  9994
2 67641  42.9979 246.2325 0004959 307.5036  52.5385 15.82340467  3372
STARLINK-36556          
1 67642U 26020AB  26051.75002314  .00207113  00000+0  12479-2 0  9999
2 67642  42.9990 244.7392 0001757 250.8919 225.3870 15.76294740  4663
