CCSDS_OMM_VERS = 2.0
CREATION_DATE  = 
ORIGINATOR     = 

OBJECT_NAME    = STARLINK-36527
OBJECT_ID      = 2026-020Q
CENTER_NAME    = EARTH
REF_FRAME      = TEME
TIME_SYSTEM    = UTC
MEAN_ELEMENT_THEORY = SGP/SGP4

EPOCH          = 2026-02-20T12:40:17.151456
MEAN_MOTION    = 15.82265860
ECCENTRICITY   = .0002205
INCLINATION    = 42.9969
RA_OF_ASC_NODE = 245.9227
ARG_OF_PERICENTER = 240.4996
MEAN_ANOMALY   = 119.5656

EPHEMERIS_TYPE = 0
CLASSIFICATION_TYPE = U
NORAD_CAT_ID   = 67631
ELEMENT_SET_NO = 999
REV_AT_EPOCH   = 338
BSTAR          = .21473E-2
MEAN_MOTION_DOT = .483398E-2
MEAN_MOTION_DDOT = 0

CCSDS_OMM_VERS = 2.0
CREATION_DATE  = 
ORIGINATOR     = 

OBJECT_NAME    = STARLINK-36633
OBJECT_ID      = 2026-020R
CENTER_NAME    = EARTH
REF_FRAME      = TEME
TIME_SYSTEM    = UTC
MEAN_ELEMENT_THEORY = SGP/SGP4

EPOCH          = 2026-02-20T18:00:01.999296
MEAN_MOTION    = 15.76384499
ECCENTRICITY   = .0002083
INCLINATION    = 42.9992
RA_OF_ASC_NODE = 244.6470
ARG_OF_PERICENTER = 272.5130
MEAN_ANOMALY   = 241.2038

EPHEMERIS_TYPE = 0
CLASSIFICATION_TYPE = U
NORAD_CAT_ID   = 67632
ELEMENT_SET_NO = 999
REV_AT_EPOCH   = 466
BSTAR          = -.15063E-3
MEAN_MOTION_DOT = -.24965E-3
MEAN_MOTION_DDOT = 0

CCSDS_OMM_VERS = 2.0
CREATION_DATE  = 
ORIGINATOR     = 

OBJECT_NAME    = STARLINK-36637
OBJECT_ID      = 2026-020S
CENTER_NAME    = EARTH
REF_FRAME      = TEME
TIME_SYSTEM    = UTC
MEAN_ELEMENT_THEORY = SGP/SGP4

EPOCH          = 2026-02-19T22:15:57.833280
MEAN_MOTION    = 15.76433786
ECCENTRICITY   = .0003563
INCLINATION    = 42.9974
RA_OF_ASC_NODE = 250.0457
ARG_OF_PERICENTER = 248.2148
MEAN_ANOMALY   = 111.8342

EPHEMERIS_TYPE = 0
CLASSIFICATION_TYPE = U
NORAD_CAT_ID   = 67633
ELEMENT_SET_NO = 999
REV_AT_EPOCH   = 328
BSTAR          = .88786E-3
MEAN_MOTION_DOT = .147099E-2
MEAN_MOTION_DDOT = 0

CCSDS_OMM_VERS = 2.0
CREATION_DATE  = 
ORIGINATOR     = 

OBJECT_NAME    = STARLINK-36617
OBJECT_ID      = 2026-020T
CENTER_NAME    = EARTH
REF_FRAME      = TEME
TIME_SYSTEM    = UTC
MEAN_ELEMENT_THEORY = SGP/SGP4

EPOCH          = 2026-02-20T11:06:28.849824
MEAN_MOTION    = 15.82321089
ECCENTRICITY   = .0010028
INCLINATION    = 43.0056
RA_OF_ASC_NODE = 246.3045
ARG_OF_PERICENTER = 314.0536
MEAN_ANOMALY   = 45.9509

EPHEMERIS_TYPE = 0
CLASSIFICATION_TYPE = U
NORAD_CAT_ID   = 67634
ELEMENT_SET_NO = 999
REV_AT_EPOCH   = 337
BSTAR          = .18159E-2
MEAN_MOTION_DOT = .407113E-2
MEAN_MOTION_DDOT = 0

CCSDS_OMM_VERS = 2.0
CREATION_DATE  = 
ORIGINATOR     = 

OBJECT_NAME    = STARLINK-36627
OBJECT_ID      = 2026-020U
CENTER_NAME    = EARTH
REF_FRAME      = TEME
TIME_SYSTEM    = UTC
MEAN_ELEMENT_THEORY = SGP/SGP4

EPOCH          = 2026-02-20T13:18:54.234432
MEAN_MOTION    = 15.76499452
ECCENTRICITY   = .00021
INCLINATION    = 42.9981
RA_OF_ASC_NODE = 246.1416
ARG_OF_PERICENTER = 252.4476
MEAN_ANOMALY   = 107.6165

EPHEMERIS_TYPE = 0
CLASSIFICATION_TYPE = U
NORAD_CAT_ID   = 67635
ELEMENT_SET_NO = 999
REV_AT_EPOCH   = 338
BSTAR          = .15673E-2
MEAN_MOTION_DOT = .264405E-2
MEAN_MOTION_DDOT = 0

CCSDS_OMM_VERS = 2.0
CREATION_DATE  = 
ORIGINATOR     = 

OBJECT_NAME    = STARLINK-36624
OBJECT_ID      = 2026-020V
CENTER_NAME    = EARTH
REF_FRAME      = TEME
TIME_SYSTEM    = UTC
MEAN_ELEMENT_THEORY = SGP/SGP4

EPOCH          = 2026-02-20T18:00:01.999296
MEAN_MOTION    = 15.76382043
ECCENTRICITY   = .0001592
INCLINATION    = 42.9994
RA_OF_ASC_NODE = 244.6788
ARG_OF_PERICENTER = 268.9459
MEAN_ANOMALY   = 232.3274

EPHEMERIS_TYPE = 0
CLASSIFICATION_TYPE = U
NORAD_CAT_ID   = 67636
ELEMENT_SET_NO = 999
REV_AT_EPOCH   = 466
BSTAR          = -.59047E-4
MEAN_MOTION_DOT = -.10098E-3
MEAN_MOTION_DDOT = 0

CCSDS_OMM_VERS = 2.0
CREATION_DATE  = 
ORIGINATOR     = 

OBJECT_NAME    = STARLINK-36610
OBJECT_ID      = 2026-020W
CENTER_NAME    = EARTH
REF_FRAME      = TEME
TIME_SYSTEM    = UTC
MEAN_ELEMENT_THEORY = SGP/SGP4

EPOCH          = 2026-02-19T22:09:39.517920
MEAN_MOTION    = 15.76351045
ECCENTRICITY   = .0001797
INCLINATION    = 42.9975
RA_OF_ASC_NODE = 250.0101
ARG_OF_PERICENTER = 260.8001
MEAN_ANOMALY   = 99.2665

EPHEMERIS_TYPE = 0
CLASSIFICATION_TYPE = U
NORAD_CAT_ID   = 67637
ELEMENT_SET_NO = 999
REV_AT_EPOCH   = 328
BSTAR          = .48604E-3
MEAN_MOTION_DOT = .7935E-3
MEAN_MOTION_DDOT = 0

CCSDS_OMM_VERS = 2.0
CREATION_DATE  = 
ORIGINATOR     = 

OBJECT_NAME    = STARLINK-36599
OBJECT_ID      = 2026-020X
CENTER_NAME    = EARTH
REF_FRAME      = TEME
TIME_SYSTEM    = UTC
MEAN_ELEMENT_THEORY = SGP/SGP4

EPOCH          = 2026-02-19T22:53:10.525920
MEAN_MOTION    = 15.82089196
ECCENTRICITY   = .0002245
INCLINATION    = 42.9966
RA_OF_ASC_NODE = 249.3581
ARG_OF_PERICENTER = 274.4216
MEAN_ANOMALY   = 85.6399

EPHEMERIS_TYPE = 0
CLASSIFICATION_TYPE = U
NORAD_CAT_ID   = 67638
ELEMENT_SET_NO = 999
REV_AT_EPOCH   = 329
BSTAR          = .97699E-3
MEAN_MOTION_DOT = .211006E-2
MEAN_MOTION_DDOT = 0

CCSDS_OMM_VERS = 2.0
CREATION_DATE  = 
ORIGINATOR     = 

OBJECT_NAME    = STARLINK-36595
OBJECT_ID      = 2026-020Y
CENTER_NAME    = EARTH
REF_FRAME      = TEME
TIME_SYSTEM    = UTC
MEAN_ELEMENT_THEORY = SGP/SGP4

EPOCH          = 2026-02-20T18:00:01.999296
MEAN_MOTION    = 15.76383307
ECCENTRICITY   = .0001723
INCLINATION    = 42.9991
RA_OF_ASC_NODE = 244.5841
ARG_OF_PERICENTER = 273.8762
MEAN_ANOMALY   = 264.7238

EPHEMERIS_TYPE = 0
CLASSIFICATION_TYPE = U
NORAD_CAT_ID   = 67639
ELEMENT_SET_NO = 999
REV_AT_EPOCH   = 466
BSTAR          = -.45295E-4
MEAN_MOTION_DOT = -.7862E-4
MEAN_MOTION_DDOT = 0

CCSDS_OMM_VERS = 2.0
CREATION_DATE  = 
ORIGINATOR     = 

OBJECT_NAME    = STARLINK-36570
OBJECT_ID      = 2026-020Z
CENTER_NAME    = EARTH
REF_FRAME      = TEME
TIME_SYSTEM    = UTC
MEAN_ELEMENT_THEORY = SGP/SGP4

EPOCH          = 2026-02-20T13:12:35.948448
MEAN_MOTION    = 15.76505084
ECCENTRICITY   = .0002083
INCLINATION    = 42.9980
RA_OF_ASC_NODE = 246.1048
ARG_OF_PERICENTER = 254.6786
MEAN_ANOMALY   = 105.3853

EPHEMERIS_TYPE = 0
CLASSIFICATION_TYPE = U
NORAD_CAT_ID   = 67640
ELEMENT_SET_NO = 999
REV_AT_EPOCH   = 338
BSTAR          = .16629E-2
MEAN_MOTION_DOT = .281192E-2
MEAN_MOTION_DDOT = 0

CCSDS_OMM_VERS = 2.0
CREATION_DATE  = 
ORIGINATOR     = 

OBJECT_NAME    = STARLINK-36514
OBJECT_ID      = 2026-020AA
CENTER_NAME    = EARTH
REF_FRAME      = TEME
TIME_SYSTEM    = UTC
MEAN_ELEMENT_THEORY = SGP/SGP4

EPOCH          = 2026-02-20T10:56:03.535872
MEAN_MOTION    = 15.82340467
ECCENTRICITY   = .0004959
INCLINATION    = 42.9979
RA_OF_ASC_NODE = 246.2325
ARG_OF_PERICENTER = 307.5036
MEAN_ANOMALY   = 52.5385

EPHEMERIS_TYPE = 0
CLASSIFICATION_TYPE = U
NORAD_CAT_ID   = 67641
ELEMENT_SET_NO = 999
REV_AT_EPOCH   = 337
BSTAR          = .18484E-2
MEAN_MOTION_DOT = .414249E-2
MEAN_MOTION_DDOT = 0

CCSDS_OMM_VERS = 2.0
CREATION_DATE  = 
ORIGINATOR     = 

OBJECT_NAME    = STARLINK-36556
OBJECT_ID      = 2026-020AB
CENTER_NAME    = EARTH
REF_FRAME      = TEME
TIME_SYSTEM    = UTC
MEAN_ELEMENT_THEORY = SGP/SGP4

EPOCH          = 2026-02-20T18:00:01.999296
MEAN_MOTION    = 15.76294740
ECCENTRICITY   = .0001757
INCLINATION    = 42.9990
RA_OF_ASC_NODE = 244.7392
ARG_OF_PERICENTER = 250.8919
MEAN_ANOMALY   = 225.3870

EPHEMERIS_TYPE = 0
CLASSIFICATION_TYPE = U
NORAD_CAT_ID   = 67642
ELEMENT_SET_NO = 999
REV_AT_EPOCH   = 466
BSTAR          = .12479E-2
MEAN_MOTION_DOT = .207113E-2
MEAN_MOTION_DDOT = 0

